GLOBALSTAR M068         
1 32266U 07048D   25033.21121336 -.00000075  00000+0  16050-3 0  9997
2 32266  51.9911 353.7064 0000720 177.2503 288.5655 12.62814640800796
GLOBALSTAR M079         
1 37188U 10054A   25032.78949632 -.00000105  00000+0 -89135-5 0  9995
2 37188  52.0015 191.9591 0000976  80.6523  58.1776 12.62270419659359
GLOBALSTAR M074         
1 37189U 10054B   25032.55414316 -.00000108  00000+0 -25539-4 0  9997
2 37189  51.9991 192.0192 0001184  99.6785 288.8290 12.62262451659936
GLOBALSTAR M076         
1 37190U 10054C   25032.67842405 -.00000104  00000+0 -10524-5 0  9991
2 37190  52.0006 191.7977 0001263  84.6278  30.2234 12.62277351659665
GLOBALSTAR M077         
1 37191U 10054D   25032.49926622 -.00000083  00000+0  11603-3 0  9998
2 37191  52.0061 149.1630 0000915 108.9887 329.7568 12.62270335660011
GLOBALSTAR M075         
1 37192U 10054E   25032.51138475 -.00000100  00000+0  20327-4 0  9997
2 37192  51.9925 234.6402 0001041  86.0862 289.7806 12.62272709658717
GLOBALSTAR M073         
1 37193U 10054F   25032.78207269 -.00000087  00000+0  93883-4 0  9996
2 37193  52.0051 147.5313 0000917 101.6090  63.5715 12.62262813660738
GLOBALSTAR M083         
1 37739U 11033A   25032.63655999 -.00000074  00000+0  16592-3 0  9998
2 37739  51.9858  96.8897 0000400 115.9710  48.8945 12.62271339629733
GLOBALSTAR M088         
1 37740U 11033B   25033.06598218 -.00000095  00000+0  48365-4 0  9995
2 37740  51.9760   1.1867 0000296  51.5792  25.7124 12.62267928625627
GLOBALSTAR M091         
1 37741U 11033C   25032.83237854 -.00000076  00000+0  15535-3 0  9997
2 37741  52.0027 325.2133 0000362  37.7449 357.0132 12.62264471626093
GLOBALSTAR M085         
1 37742U 11033D   25033.08159084 -.00000076  00000+0  15525-3 0  9993
2 37742  51.9863 275.6146 0000718  58.7215  88.9106 12.62264998627121
GLOBALSTAR M081         
1 37743U 11033E   25032.60660272 -.00000066  00000+0  20855-3 0  9998
2 37743  51.9956 279.7625 0000890  54.0144 335.3094 12.62260148626726
GLOBALSTAR M089         
1 37744U 11033F   25032.74080182 -.00000094  00000+0  53979-4 0  9995
2 37744  51.9904 233.6073 0001255  85.6453  12.8326 12.62265985627589
GLOBALSTAR M084         
1 38040U 11080A   25032.90135145 -.00000093  00000+0  61291-4 0  9990
2 38040  52.0009 100.3320 0000891 112.7537 296.2908 12.62261677605586
GLOBALSTAR M080         
1 38041U 11080B   25032.49161149 -.00000070  00000+0  18770-3 0  9996
2 38041  52.0060 103.1437 0001035  96.7063   6.5174 12.62270985605657
GLOBALSTAR M082         
1 38042U 11080C   25032.43297532 -.00000088  00000+0  87909-4 0  9997
2 38042  52.0081  58.7491 0000357 200.8919 298.1249 12.62272722606351
GLOBALSTAR M092         
1 38043U 11080D   25032.88561731 -.00000080  00000+0  13241-3 0  9991
2 38043  52.0078 147.7406 0000945 114.4709  42.4442 12.62272662604865
GLOBALSTAR M090         
1 38044U 11080E   25033.06620918 -.00000092  00000+0  63651-4 0  9990
2 38044  51.9893  50.8044 0000169 131.0938 246.1756 12.62266413606598
GLOBALSTAR M086         
1 38045U 11080F   25032.23510646 -.00000088  00000+0  88896-4 0  9998
2 38045  51.9904  53.8756 0000904  42.3195  36.8895 12.62266208606399
GLOBALSTAR M097         
1 39072U 13005A   25033.19459978 -.00000080  00000+0  13218-3 0  9991
2 39072  52.0070 325.3668 0000616  43.0244 317.0671 12.62269509553842
GLOBALSTAR M093         
1 39073U 13005B   25032.77161343 -.00000070  00000+0  18948-3 0  9995
2 39073  51.9828 320.1694 0000626  34.5559 325.5348 12.62260872553668
GLOBALSTAR M094         
1 39074U 13005C   25032.77209049 -.00000104  00000+0  14958-5 0  9999
2 39074  51.9930 234.4171 0000925  65.8041 294.2923 12.62268003555279
GLOBALSTAR M096         
1 39075U 13005D   25032.62696284 -.00000066  00000+0  21065-3 0  9997
2 39075  52.0074 283.2701 0000721  46.4424 313.6502 12.62267790554175
GLOBALSTAR M078         
1 39076U 13005E   25033.07500904 -.00000086  00000+0  10178-3 0  9996
2 39076  51.9895   6.5918 0000625 231.9353 128.1457 12.62269685553066
GLOBALSTAR M095         
1 39077U 13005F   25033.18104430 -.00000097  00000+0  37405-4 0  9998
2 39077  51.9822   3.5361 0000311 305.4644  54.6193 12.62265810553086
GLOBALSTAR M087         
1 52888U 22064A   25032.73668135 -.00000088  00000+0  85575-4 0  9996
2 52888  51.9784 146.2965 0000689 113.6665 246.4274 12.62268242127937
